{"signature":{"version":"1.0","source":"NASA/JPL SBDB (Small-Body DataBase) Query API"},"fields":["spkid","full_name","kind","neo","pha","e","a","q","i","om","w","ma","tp","per","n","ad","GM","diameter","pole","rot_per"],"data":[[20163693,"163693 Atira (2003 CP20)","an","Y","N","0.3221","0.741","0.502","25.62","103.87","252.94","139.17","2460510.43","233","1.545","0.98",null,null,null,"3.398"],[20164294,"164294 (2004 XZ130)","an","Y","N","0.4545","0.6175","0.337","2.95","211.15","5.42","134.44","2460534.30","177","2.031","0.90",null,null,null,null],[20413563,"413563 (2005 TG45)","an","Y","N","0.3722","0.6813","0.428","23.33","273.42","230.43","153.07","2460513.16","205","1.752","0.93",null,null,null,"1.3862"],[20418265,"418265 (2008 EA32)","an","Y","N","0.3050","0.6159","0.428","28.26","100.94","181.84","356.92","2460602.01","177","2.039","0.80",null,null,null,null],[20434326,"434326 (2004 JG6)","an","Y","Y","0.5311","0.6352","0.298","18.94","37.01","353.01","336.94","2460612.34","185","1.947","0.97",null,null,null,null],[20481817,"481817 (2008 UL90)","an","Y","Y","0.3799","0.695","0.431","24.31","81.13","183.67","2.40","2460599.09","212","1.701","0.96",null,null,null,null],[20594913,"594913 'Aylo'chaxnim (2020 AV2)","an","Y","N","0.1771","0.5554","0.457","15.87","6.69","187.35","72.14","2460570.21","151","2.381","0.65",null,null,null,null],[20613676,"613676 (2006 WE4)","an","Y","N","0.1829","0.7848","0.641","24.77","311.00","318.60","108.87","2460523.71","254","1.418","0.93",null,null,null,null],[20678861,"678861 (2017 YH)","an","Y","N","0.4823","0.6344","0.328","19.86","134.16","147.53","11.19","2460594.76","185","1.951","0.94",null,null,null,"3.8896"],[3184472,"       (1998 DK36)","au","Y","N","0.4160","0.6923","0.404","2.02","151.46","180.04","183.25","2450971.79","210","1.711","0.98",null,null,null,null],[3553148,"       (2010 XB11)","au","Y","N","0.5338","0.6181","0.288","29.88","96.30","202.49","326.77","2460616.88","177","2.028","0.95",null,null,null,null],[3617387,"       (2012 VE46)","au","Y","Y","0.3613","0.7131","0.455","6.67","8.65","190.59","141.63","2460513.97","220","1.637","0.97",null,null,null,null],[3638505,"       (2013 JX28)","au","Y","N","0.5642","0.6008","0.262","10.76","39.93","354.90","10.30","2460595.64","170","2.116","0.94",null,null,null,null],[3648862,"       (2013 TQ5)","au","Y","N","0.1557","0.7737","0.653","16.40","286.74","247.22","257.50","2460671.27","249","1.448","0.89",null,null,null,null],[3666783,"       (2014 FO47)","au","Y","Y","0.2711","0.7521","0.548","19.20","358.63","347.45","265.10","2460663.31","238","1.511","0.96",null,null,null,null],[3712675,"       (2015 DR215)","au","Y","Y","0.4715","0.6666","0.352","4.06","314.57","42.70","85.35","2460553.36","199","1.811","0.98",null,null,null,null],[3791243,"       (2017 XA1)","au","Y","Y","0.2016","0.8094","0.646","17.18","239.62","327.62","12.33","2460591.39","266","1.353","0.97",null,null,null,null],[3824107,"       (2018 JB3)","au","Y","N","0.2904","0.6832","0.485","40.39","106.41","355.25","263.28","2460655.91","206","1.745","0.88",null,null,null,null],[3837637,"       (2019 AQ3)","au","Y","N","0.3143","0.5886","0.404","47.22","64.48","163.17","163.05","2460525.79","165","2.182","0.77",null,null,null,null],[3842903,"       (2019 LF6)","au","Y","N","0.4293","0.5554","0.317","29.50","179.02","213.79","197.27","2460668.85","151","2.381","0.79",null,null,null,null],[54016935,"       (2020 HA10)","au","Y","N","0.1552","0.8197","0.692","49.65","103.41","26.71","124.31","2460506.90","271","1.328","0.95",null,null,null,null],[54048903,"       (2020 OV1)","au","Y","N","0.2541","0.6376","0.476","32.58","296.01","189.81","328.54","2460616.75","186","1.936","0.80",null,null,null,null],[54106533,"       (2021 BS1)","au","Y","N","0.3377","0.5984","0.396","31.73","27.68","332.66","155.74","2460527.35","169","2.129","0.80",null,null,null,null],[54158076,"       (2021 LJ4)","au","Y","N","0.3820","0.6763","0.418","9.83","277.58","56.63","286.05","2460642.24","203","1.772","0.93",null,null,null,null],[54178155,"       (2021 PB2)","au","Y","N","0.1500","0.7174","0.610","24.83","234.97","278.32","299.07","2460638.07","222","1.622","0.83",null,null,null,null],[54186922,"       (2021 PH27)","au","Y","N","0.7116","0.4617","0.133","31.94","39.40","8.58","232.02","2460641.24","115","3.141","0.79",null,null,null,null],[54216342,"       (2021 VR3)","au","Y","N","0.4139","0.5339","0.313","18.06","129.04","134.42","19.90","2460592.62","143","2.526","0.75",null,null,null,null],[54244776,"       (2022 BJ8)","au","Y","N","0.2487","0.7853","0.590","15.83","95.82","293.94","77.83","2460545.54","254","1.416","0.98",null,null,null,null],[54346214,"       (2023 EL)","au","Y","N","0.2462","0.7714","0.581","13.88","263.38","142.57","205.77","2460706.52","247","1.455","0.96",null,null,null,null],[54349273,"       (2023 EY2)","au","Y","N","0.3398","0.6036","0.398","35.48","95.96","205.84","336.70","2460611.59","171","2.102","0.81",null,null,null,null],[54360731,"       (2023 KQ5)","au","Y","N","0.0771","0.8721","0.805","67.43","215.67","219.17","57.17","2460553.25","297","1.21","0.94",null,null,null,null],[54408397,"       (2023 WK3)","au","Y","Y","0.4999","0.6441","0.322","24.47","235.05","11.13","90.66","2460552.96","189","1.907","0.97",null,null,null,null]],"count":32}